{
  "type": "FeatureCollection",
  "features": [
    {
      "type": "Feature",
      "properties": {
        "norad_id": 34088,
        "name": "IRIDIUM 33 DEB",
        "group": "iridium-33-debris",
        "lat": 11.13235528627591,
        "lon": -155.7728953942996,
        "alt_km": 589.2998764881986,
        "timestamp": "2025-12-25T07:41:10.108082+00:00",
        "meta_object_name": "IRIDIUM 33 DEB",
        "meta_object_id": "1997-051CX",
        "meta_epoch": "2025-12-24T20:27:16.689600",
        "meta_mean_motion": 14.91914263,
        "meta_eccentricity": 0.00070087,
        "meta_inclination": 86.384,
        "meta_ra_of_asc_node": 25.1553,
        "meta_arg_of_pericenter": 138.8061,
        "meta_mean_anomaly": 38.0669,
        "meta_ephemeris_type": 0,
        "meta_classification_type": "U",
        "meta_norad_cat_id": 34088,
        "meta_element_set_no": 999,
        "meta_rev_at_epoch": 88922,
        "meta_bstar": 0.0024721426,
        "meta_mean_motion_dot": 0.00025093,
        "meta_mean_motion_ddot": 0,
        "tle_line1": "1 34088U 97051CX  25358.85227650  .00025093  00000+0  24721-2 0  9999",
        "tle_line2": "2 34088  86.3840  25.1553 0007008 138.8061  38.0669 14.91914263889228"
      },
      "geometry": {
        "type": "Point",
        "coordinates": [
          -155.7728953942996,
          11.13235528627591
        ]
      }
    },
    {
      "type": "Feature",
      "properties": {
        "norad_id": 34091,
        "name": "IRIDIUM 33 DEB",
        "group": "iridium-33-debris",
        "lat": -69.73346933353594,
        "lon": 51.087884425766475,
        "alt_km": 610.1676033150461,
        "timestamp": "2025-12-25T07:41:10.108093+00:00",
        "meta_object_name": "IRIDIUM 33 DEB",
        "meta_object_id": "1997-051DA",
        "meta_epoch": "2025-12-24T15:48:13.781376",
        "meta_mean_motion": 14.82675579,
        "meta_eccentricity": 0.00342697,
        "meta_inclination": 86.3409,
        "meta_ra_of_asc_node": 61.3716,
        "meta_arg_of_pericenter": 250.5713,
        "meta_mean_anomaly": 109.1805,
        "meta_ephemeris_type": 0,
        "meta_classification_type": "U",
        "meta_norad_cat_id": 34091,
        "meta_element_set_no": 999,
        "meta_rev_at_epoch": 88043,
        "meta_bstar": 0.0050215887,
        "meta_mean_motion_dot": 0.00041111,
        "meta_mean_motion_ddot": 0,
        "tle_line1": "1 34091U 97051DA  25358.65849284  .00041111  00000+0  50216-2 0  9991",
        "tle_line2": "2 34091  86.3409  61.3716 0034269 250.5713 109.1805 14.82675579880431"
      },
      "geometry": {
        "type": "Point",
        "coordinates": [
          51.087884425766475,
          -69.73346933353594
        ]
      }
    },
    {
      "type": "Feature",
      "properties": {
        "norad_id": 34097,
        "name": "IRIDIUM 33 DEB",
        "group": "iridium-33-debris",
        "lat": -11.761147187632565,
        "lon": 176.6468556030234,
        "alt_km": 816.5929427344936,
        "timestamp": "2025-12-25T07:41:10.108103+00:00",
        "meta_object_name": "IRIDIUM 33 DEB",
        "meta_object_id": "1997-051DG",
        "meta_epoch": "2025-12-24T00:39:48.601440",
        "meta_mean_motion": 14.34864137,
        "meta_eccentricity": 0.00814826,
        "meta_inclination": 86.2003,
        "meta_ra_of_asc_node": 356.4244,
        "meta_arg_of_pericenter": 325.2171,
        "meta_mean_anomaly": 34.3712,
        "meta_ephemeris_type": 0,
        "meta_classification_type": "U",
        "meta_norad_cat_id": 34097,
        "meta_element_set_no": 999,
        "meta_rev_at_epoch": 87281,
        "meta_bstar": 0.0015312665,
        "meta_mean_motion_dot": 4.532e-05,
        "meta_mean_motion_ddot": 0,
        "tle_line1": "1 34097U 97051DG  25358.02764585  .00004532  00000+0  15313-2 0  9993",
        "tle_line2": "2 34097  86.2003 356.4244 0081482 325.2171  34.3712 14.34864137872813"
      },
      "geometry": {
        "type": "Point",
        "coordinates": [
          176.6468556030234,
          -11.761147187632565
        ]
      }
    },
    {
      "type": "Feature",
      "properties": {
        "norad_id": 34145,
        "name": "IRIDIUM 33 DEB",
        "group": "iridium-33-debris",
        "lat": 80.60973412262432,
        "lon": -9.463422409174287,
        "alt_km": 708.2194682303034,
        "timestamp": "2025-12-25T07:41:10.108114+00:00",
        "meta_object_name": "IRIDIUM 33 DEB",
        "meta_object_id": "1997-051DY",
        "meta_epoch": "2025-12-23T08:41:39.975936",
        "meta_mean_motion": 14.42361739,
        "meta_eccentricity": 0.00555944,
        "meta_inclination": 86.2126,
        "meta_ra_of_asc_node": 327.7951,
        "meta_arg_of_pericenter": 60.0799,
        "meta_mean_anomaly": 300.5906,
        "meta_ephemeris_type": 0,
        "meta_classification_type": "U",
        "meta_norad_cat_id": 34145,
        "meta_element_set_no": 999,
        "meta_rev_at_epoch": 87791,
        "meta_bstar": 0.0012419771,
        "meta_mean_motion_dot": 4.2e-05,
        "meta_mean_motion_ddot": 0,
        "tle_line1": "1 34145U 97051DY  25357.36226824  .00004200  00000+0  12420-2 0  9990",
        "tle_line2": "2 34145  86.2126 327.7951 0055594  60.0799 300.5906 14.42361739877912"
      },
      "geometry": {
        "type": "Point",
        "coordinates": [
          -9.463422409174287,
          80.60973412262432
        ]
      }
    },
    {
      "type": "Feature",
      "properties": {
        "norad_id": 34146,
        "name": "IRIDIUM 33 DEB",
        "group": "iridium-33-debris",
        "lat": 24.007904565771494,
        "lon": -14.099203126486852,
        "alt_km": 745.1770683046016,
        "timestamp": "2025-12-25T07:41:10.108124+00:00",
        "meta_object_name": "IRIDIUM 33 DEB",
        "meta_object_id": "1997-051DZ",
        "meta_epoch": "2025-12-24T21:44:23.578080",
        "meta_mean_motion": 14.49125378,
        "meta_eccentricity": 0.00268554,
        "meta_inclination": 86.2841,
        "meta_ra_of_asc_node": 344.4251,
        "meta_arg_of_pericenter": 179.6766,
        "meta_mean_anomaly": 203.9999,
        "meta_ephemeris_type": 0,
        "meta_classification_type": "U",
        "meta_norad_cat_id": 34146,
        "meta_element_set_no": 999,
        "meta_rev_at_epoch": 88283,
        "meta_bstar": 0.00094692404,
        "meta_mean_motion_dot": 3.635e-05,
        "meta_mean_motion_ddot": 0,
        "tle_line1": "1 34146U 97051DZ  25358.90582845  .00003635  00000+0  94692-3 0  9993",
        "tle_line2": "2 34146  86.2841 344.4251 0026855 179.6766 203.9999 14.49125378882834"
      },
      "geometry": {
        "type": "Point",
        "coordinates": [
          -14.099203126486852,
          24.007904565771494
        ]
      }
    },
    {
      "type": "Feature",
      "properties": {
        "norad_id": 34159,
        "name": "IRIDIUM 33 DEB",
        "group": "iridium-33-debris",
        "lat": -19.119798044374903,
        "lon": 41.60794112296399,
        "alt_km": 770.9555788923526,
        "timestamp": "2025-12-25T07:41:10.108134+00:00",
        "meta_object_name": "IRIDIUM 33 DEB",
        "meta_object_id": "1997-051EN",
        "meta_epoch": "2025-12-24T20:05:20.636160",
        "meta_mean_motion": 14.38522159,
        "meta_eccentricity": 0.00262083,
        "meta_inclination": 86.3491,
        "meta_ra_of_asc_node": 43.0823,
        "meta_arg_of_pericenter": 245.0381,
        "meta_mean_anomaly": 114.8094,
        "meta_ephemeris_type": 0,
        "meta_classification_type": "U",
        "meta_norad_cat_id": 34159,
        "meta_element_set_no": 999,
        "meta_rev_at_epoch": 88133,
        "meta_bstar": 0.00037252524,
        "meta_mean_motion_dot": 1.162e-05,
        "meta_mean_motion_ddot": 0,
        "tle_line1": "1 34159U 97051EN  25358.83704440  .00001162  00000+0  37253-3 0  9999",
        "tle_line2": "2 34159  86.3491  43.0823 0026208 245.0381 114.8094 14.38522159881336"
      },
      "geometry": {
        "type": "Point",
        "coordinates": [
          41.60794112296399,
          -19.119798044374903
        ]
      }
    },
    {
      "type": "Feature",
      "properties": {
        "norad_id": 34350,
        "name": "IRIDIUM 33 DEB",
        "group": "iridium-33-debris",
        "lat": -39.0579089889418,
        "lon": -5.639903057412153,
        "alt_km": 759.1102210323234,
        "timestamp": "2025-12-25T07:41:10.108145+00:00",
        "meta_object_name": "IRIDIUM 33 DEB",
        "meta_object_id": "1997-051ES",
        "meta_epoch": "2025-12-24T00:32:43.402848",
        "meta_mean_motion": 14.45412169,
        "meta_eccentricity": 0.00234875,
        "meta_inclination": 86.3272,
        "meta_ra_of_asc_node": 357.9107,
        "meta_arg_of_pericenter": 100.6701,
        "meta_mean_anomaly": 313.0828,
        "meta_ephemeris_type": 0,
        "meta_classification_type": "U",
        "meta_norad_cat_id": 34350,
        "meta_element_set_no": 999,
        "meta_rev_at_epoch": 88456,
        "meta_bstar": 0.00031816232,
        "meta_mean_motion_dot": 1.143e-05,
        "meta_mean_motion_ddot": 0,
        "tle_line1": "1 34350U 97051ES  25358.02272457  .00001143  00000+0  31816-3 0  9999",
        "tle_line2": "2 34350  86.3272 357.9107 0023487 100.6701 313.0828 14.45412169884569"
      },
      "geometry": {
        "type": "Point",
        "coordinates": [
          -5.639903057412153,
          -39.0579089889418
        ]
      }
    }
  ]
}